HST                     
1 20580U 90037B   24223.55298235  .00012086  00000+0  55973-3 0  9994
2 20580  28.4695 340.6804 0001779 272.1305  87.9084 15.18539152685308
